CCSDS_OMM_VERS = 2.0
CREATION_DATE  = 
ORIGINATOR     = 

OBJECT_NAME    = SL-3 R/B
OBJECT_ID      = 1982-079B
CENTER_NAME    = EARTH
REF_FRAME      = TEME
TIME_SYSTEM    = UTC
MEAN_ELEMENT_THEORY = SGP/SGP4

EPOCH          = 2026-01-23T13:46:20.951904
MEAN_MOTION    = 15.24151083
ECCENTRICITY   = .00246955
INCLINATION    = 81.1441
RA_OF_ASC_NODE = 246.3302
ARG_OF_PERICENTER = 321.2005
MEAN_ANOMALY   = 38.7454

EPHEMERIS_TYPE = 0
CLASSIFICATION_TYPE = U
NORAD_CAT_ID   = 13403
ELEMENT_SET_NO = 999
REV_AT_EPOCH   = 37082
BSTAR          = .28925734E-3
MEAN_MOTION_DOT = .7122E-4
MEAN_MOTION_DDOT = 0

CCSDS_OMM_VERS = 2.0
CREATION_DATE  = 
ORIGINATOR     = 

OBJECT_NAME    = SL-14 R/B
OBJECT_ID      = 1982-092B
CENTER_NAME    = EARTH
REF_FRAME      = TEME
TIME_SYSTEM    = UTC
MEAN_ELEMENT_THEORY = SGP/SGP4

EPOCH          = 2026-01-23T13:16:12.467712
MEAN_MOTION    = 14.86607857
ECCENTRICITY   = .00218872
INCLINATION    = 82.5680
RA_OF_ASC_NODE = 183.6048
ARG_OF_PERICENTER = 90.9963
MEAN_ANOMALY   = 359.0983

EPHEMERIS_TYPE = 0
CLASSIFICATION_TYPE = U
NORAD_CAT_ID   = 13553
ELEMENT_SET_NO = 999
REV_AT_EPOCH   = 32222
BSTAR          = .1097115E-3
MEAN_MOTION_DOT = .1002E-4
MEAN_MOTION_DDOT = 0

CCSDS_OMM_VERS = 2.0
CREATION_DATE  = 
ORIGINATOR     = 

OBJECT_NAME    = SL-3 R/B
OBJECT_ID      = 1983-010B
CENTER_NAME    = EARTH
REF_FRAME      = TEME
TIME_SYSTEM    = UTC
MEAN_ELEMENT_THEORY = SGP/SGP4

EPOCH          = 2026-01-23T12:07:50.857536
MEAN_MOTION    = 15.44760624
ECCENTRICITY   = .00166793
INCLINATION    = 81.1015
RA_OF_ASC_NODE = 57.5845
ARG_OF_PERICENTER = 199.4502
MEAN_ANOMALY   = 160.6108

EPHEMERIS_TYPE = 0
CLASSIFICATION_TYPE = U
NORAD_CAT_ID   = 13819
ELEMENT_SET_NO = 999
REV_AT_EPOCH   = 35096
BSTAR          = .37942336E-3
MEAN_MOTION_DOT = .17879E-3
MEAN_MOTION_DDOT = 0

CCSDS_OMM_VERS = 2.0
CREATION_DATE  = 
ORIGINATOR     = 

OBJECT_NAME    = SL-3 R/B
OBJECT_ID      = 1983-075B
CENTER_NAME    = EARTH
REF_FRAME      = TEME
TIME_SYSTEM    = UTC
MEAN_ELEMENT_THEORY = SGP/SGP4

EPOCH          = 2026-01-23T12:41:48.252480
MEAN_MOTION    = 15.37171778
ECCENTRICITY   = .00235093
INCLINATION    = 97.6125
RA_OF_ASC_NODE = 26.4493
ARG_OF_PERICENTER = 35.6994
MEAN_ANOMALY   = 324.5817

EPHEMERIS_TYPE = 0
CLASSIFICATION_TYPE = U
NORAD_CAT_ID   = 14208
ELEMENT_SET_NO = 999
REV_AT_EPOCH   = 32321
BSTAR          = .46681462E-3
MEAN_MOTION_DOT = .17077E-3
MEAN_MOTION_DDOT = 0

CCSDS_OMM_VERS = 2.0
CREATION_DATE  = 
ORIGINATOR     = 

OBJECT_NAME    = COSMOS 1536
OBJECT_ID      = 1984-013A
CENTER_NAME    = EARTH
REF_FRAME      = TEME
TIME_SYSTEM    = UTC
MEAN_ELEMENT_THEORY = SGP/SGP4

EPOCH          = 2026-01-23T09:37:02.064576
MEAN_MOTION    = 15.23153823
ECCENTRICITY   = .00156622
INCLINATION    = 82.5474
RA_OF_ASC_NODE = 152.8317
ARG_OF_PERICENTER = 83.0251
MEAN_ANOMALY   = 277.2767

EPHEMERIS_TYPE = 0
CLASSIFICATION_TYPE = U
NORAD_CAT_ID   = 14699
ELEMENT_SET_NO = 999
REV_AT_EPOCH   = 26572
BSTAR          = .38404126E-3
MEAN_MOTION_DOT = .9134E-4
MEAN_MOTION_DDOT = 0

CCSDS_OMM_VERS = 2.0
CREATION_DATE  = 
ORIGINATOR     = 

OBJECT_NAME    = SL-14 R/B
OBJECT_ID      = 1984-027B
CENTER_NAME    = EARTH
REF_FRAME      = TEME
TIME_SYSTEM    = UTC
MEAN_ELEMENT_THEORY = SGP/SGP4

EPOCH          = 2026-01-23T05:45:06.418368
MEAN_MOTION    = 14.85927036
ECCENTRICITY   = .00192874
INCLINATION    = 82.5426
RA_OF_ASC_NODE = 287.6437
ARG_OF_PERICENTER = 121.2284
MEAN_ANOMALY   = 239.0826

EPHEMERIS_TYPE = 0
CLASSIFICATION_TYPE = U
NORAD_CAT_ID   = 14820
ELEMENT_SET_NO = 999
REV_AT_EPOCH   = 24088
BSTAR          = .99391265E-4
MEAN_MOTION_DOT = .894E-5
MEAN_MOTION_DDOT = 0

CCSDS_OMM_VERS = 2.0
CREATION_DATE  = 
ORIGINATOR     = 

OBJECT_NAME    = SL-8 R/B
OBJECT_ID      = 1985-006B
CENTER_NAME    = EARTH
REF_FRAME      = TEME
TIME_SYSTEM    = UTC
MEAN_ELEMENT_THEORY = SGP/SGP4

EPOCH          = 2026-01-23T08:55:49.916928
MEAN_MOTION    = 14.37754789
ECCENTRICITY   = .00197774
INCLINATION    = 74.0471
RA_OF_ASC_NODE = 344.5321
ARG_OF_PERICENTER = 270.2213
MEAN_ANOMALY   = 206.9153

EPHEMERIS_TYPE = 0
CLASSIFICATION_TYPE = U
NORAD_CAT_ID   = 15483
ELEMENT_SET_NO = 999
REV_AT_EPOCH   = 14751
BSTAR          = .20995637E-3
MEAN_MOTION_DOT = .607E-5
MEAN_MOTION_DDOT = 0

CCSDS_OMM_VERS = 2.0
CREATION_DATE  = 
ORIGINATOR     = 

OBJECT_NAME    = SL-12 R/B(2)
OBJECT_ID      = 1985-042D
CENTER_NAME    = EARTH
REF_FRAME      = TEME
TIME_SYSTEM    = UTC
MEAN_ELEMENT_THEORY = SGP/SGP4

EPOCH          = 2026-01-23T12:47:02.943744
MEAN_MOTION    = 14.21966548
ECCENTRICITY   = .00359358
INCLINATION    = 71.1068
RA_OF_ASC_NODE = 183.1280
ARG_OF_PERICENTER = 199.3709
MEAN_ANOMALY   = 225.2366

EPHEMERIS_TYPE = 0
CLASSIFICATION_TYPE = U
NORAD_CAT_ID   = 15772
ELEMENT_SET_NO = 999
REV_AT_EPOCH   = 10797
BSTAR          = .11976263E-3
MEAN_MOTION_DOT = .219E-5
MEAN_MOTION_DDOT = 0

CCSDS_OMM_VERS = 2.0
CREATION_DATE  = 
ORIGINATOR     = 

OBJECT_NAME    = SL-14 R/B
OBJECT_ID      = 1985-069B
CENTER_NAME    = EARTH
REF_FRAME      = TEME
TIME_SYSTEM    = UTC
MEAN_ELEMENT_THEORY = SGP/SGP4

EPOCH          = 2026-01-23T12:10:47.797824
MEAN_MOTION    = 14.86376939
ECCENTRICITY   = .0018382
INCLINATION    = 82.5247
RA_OF_ASC_NODE = 67.4313
ARG_OF_PERICENTER = 346.8816
MEAN_ANOMALY   = 13.1920

EPHEMERIS_TYPE = 0
CLASSIFICATION_TYPE = U
NORAD_CAT_ID   = 15945
ELEMENT_SET_NO = 999
REV_AT_EPOCH   = 16612
BSTAR          = .94292506E-4
MEAN_MOTION_DOT = .858E-5
MEAN_MOTION_DDOT = 0

CCSDS_OMM_VERS = 2.0
CREATION_DATE  = 
ORIGINATOR     = 

OBJECT_NAME    = SL-16 R/B
OBJECT_ID      = 1985-097B
CENTER_NAME    = EARTH
REF_FRAME      = TEME
TIME_SYSTEM    = UTC
MEAN_ELEMENT_THEORY = SGP/SGP4

EPOCH          = 2026-01-23T00:38:10.470912
MEAN_MOTION    = 14.16590864
ECCENTRICITY   = .0008974
INCLINATION    = 71.0003
RA_OF_ASC_NODE = 236.6846
ARG_OF_PERICENTER = 313.5762
MEAN_ANOMALY   = 152.8358

EPHEMERIS_TYPE = 0
CLASSIFICATION_TYPE = U
NORAD_CAT_ID   = 16182
ELEMENT_SET_NO = 999
REV_AT_EPOCH   = 8076
BSTAR          = -.38269316E-4
MEAN_MOTION_DOT = -.124E-5
MEAN_MOTION_DDOT = 0

CCSDS_OMM_VERS = 2.0
CREATION_DATE  = 
ORIGINATOR     = 

OBJECT_NAME    = SL-14 R/B
OBJECT_ID      = 1986-006B
CENTER_NAME    = EARTH
REF_FRAME      = TEME
TIME_SYSTEM    = UTC
MEAN_ELEMENT_THEORY = SGP/SGP4

EPOCH          = 2026-01-23T11:54:41.209920
MEAN_MOTION    = 14.86740697
ECCENTRICITY   = .00781128
INCLINATION    = 82.5287
RA_OF_ASC_NODE = 302.2673
ARG_OF_PERICENTER = 63.0251
MEAN_ANOMALY   = 297.8915

EPHEMERIS_TYPE = 0
CLASSIFICATION_TYPE = U
NORAD_CAT_ID   = 16496
ELEMENT_SET_NO = 999
REV_AT_EPOCH   = 14249
BSTAR          = .14880979E-3
MEAN_MOTION_DOT = .1427E-4
MEAN_MOTION_DDOT = 0

CCSDS_OMM_VERS = 2.0
CREATION_DATE  = 
ORIGINATOR     = 

OBJECT_NAME    = COSMOS 1743
OBJECT_ID      = 1986-034A
CENTER_NAME    = EARTH
REF_FRAME      = TEME
TIME_SYSTEM    = UTC
MEAN_ELEMENT_THEORY = SGP/SGP4

EPOCH          = 2026-01-23T07:53:27.519072
MEAN_MOTION    = 15.55111928
ECCENTRICITY   = .00054152
INCLINATION    = 82.5350
RA_OF_ASC_NODE = 121.3058
ARG_OF_PERICENTER = 100.8559
MEAN_ANOMALY   = 259.3305

EPHEMERIS_TYPE = 0
CLASSIFICATION_TYPE = U
NORAD_CAT_ID   = 16719
ELEMENT_SET_NO = 999
REV_AT_EPOCH   = 17319
BSTAR          = .66970313E-3
MEAN_MOTION_DOT = .45305E-3
MEAN_MOTION_DDOT = 0

