SL-3 R/B                
1 13403U 82079B   26023.57385361  .00007122  00000+0  28926-3 0  9999
2 13403  81.1441 246.3302 0024695 321.2005  38.7454 15.24151083370822
SL-14 R/B               
1 13553U 82092B   26023.55292208  .00001002  00000+0  10971-3 0  9997
2 13553  82.5680 183.6048 0021887  90.9963 359.0983 14.86607857322220
SL-3 R/B                
1 13819U 83010B   26023.50544974  .00017879  00000+0  37942-3 0  9994
2 13819  81.1015  57.5845 0016679 199.4502 160.6108 15.44760624350967
SL-3 R/B                
1 14208U 83075B   26023.52903070  .00017077  00000+0  46681-3 0  9996
2 14208  97.6125  26.4493 0023509  35.6994 324.5817 15.37171778323218
COSMOS 1536             
1 14699U 84013A   26023.40071834  .00009134  00000+0  38404-3 0  9993
2 14699  82.5474 152.8317 0015662  83.0251 277.2767 15.23153823265720
SL-14 R/B               
1 14820U 84027B   26023.23965762  .00000894  00000+0  99391-4 0  9994
2 14820  82.5426 287.6437 0019287 121.2284 239.0826 14.85927036240885
SL-8 R/B                
1 15483U 85006B   26023.37210552  .00000607  00000+0  20996-3 0  9999
2 15483  74.0471 344.5321 0019777 270.2213 206.9153 14.37754789147515
SL-12 R/B(2)            
1 15772U 85042D   26023.53267296  .00000219  00000+0  11976-3 0  9992
2 15772  71.1068 183.1280 0035935 199.3709 225.2366 14.21966548107979
SL-14 R/B               
1 15945U 85069B   26023.50749766  .00000858  00000+0  94293-4 0  9990
2 15945  82.5247  67.4313 0018382 346.8816  13.1920 14.86376939166124
SL-16 R/B               
1 16182U 85097B   26023.02651008 -.00000124  00000+0 -38269-4 0  9992
2 16182  71.0003 236.6846 0008974 313.5762 152.8358 14.16590864 80768
SL-14 R/B               
1 16496U 86006B   26023.49631030  .00001427  00000+0  14881-3 0  9993
2 16496  82.5287 302.2673 0078112  63.0251 297.8915 14.86740697142492
COSMOS 1743             
1 16719U 86034A   26023.32879073  .00045305  00000+0  66970-3 0  9994
2 16719  82.5350 121.3058 0005415 100.8559 259.3305 15.55111928173198
